     2.11           N: GPS NAV DATA                         RINEX VERSION / TYPE
teqc  2016Apr1      IGN                 20230628 09:30:03UTCPGM / RUN BY / DATE
    18                                                      LEAP SECONDS
Linux 2.4.21-27.ELsmp|Opteron|gcc|Linux x86_64|=+           COMMENT
teqc  2016Apr1      IGN                 20230628 09:30:03UTCCOMMENT
    1.4901D-08  2.2352D-08 -1.1921D-07 -1.1921D-07          ION ALPHA
    1.1469D+05  1.6384D+05 -6.5536D+04 -4.5875D+05          ION BETA
    0.000000000000D+00-6.217248937901D-15   503808     2268 DELTA-UTC: A0,A1,T,W
                                                            END OF HEADER
20 23  6 28 10  0  0.0 4.255892708898D-04-2.046363078989D-12 0.000000000000D+00
    4.800000000000D+01-1.387500000000D+01 4.663765693132D-09-3.027929524733D-01
   -7.376074790955D-07 4.043096909299D-03 9.188428521156D-06 5.153572093964D+03
    2.952000000000D+05 1.192092895508D-07 2.628446823143D+00 7.264316082001D-08
    9.492109476346D-01 1.971875000000D+02-2.877102898976D+00-8.203198839016D-09
    3.214419607765D-10 1.000000000000D+00 2.268000000000D+03 0.000000000000D+00
    2.000000000000D+00 0.000000000000D+00-8.381903171539D-09 4.800000000000D+01
    2.880180000000D+05 4.000000000000D+00
14 23  6 28 10  0  0.0 1.050839200616D-04 1.227817847393D-11 0.000000000000D+00
    1.100000000000D+02 9.350000000000D+01 4.886632119271D-09-2.544274630588D+00
    4.820525646210D-06 3.310024505481D-03 7.618218660355D-06 5.153682918549D+03
    2.952000000000D+05-1.862645149231D-08-3.137075311779D-01-4.470348358154D-08
    9.487258381478D-01 2.293125000000D+02-2.987592363111D+00-8.211770624636D-09
    1.278624688422D-10 1.000000000000D+00 2.268000000000D+03 0.000000000000D+00
    2.000000000000D+00 0.000000000000D+00-7.916241884232D-09 8.780000000000D+02
    2.891280000000D+05 4.000000000000D+00
13 23  6 28 10  0  0.0 5.400050431490D-04 5.115907697473D-12 0.000000000000D+00
    4.100000000000D+01-1.959375000000D+01 4.547689429519D-09 6.814893787681D-01
   -1.143664121628D-06 7.108994759619D-03 6.614252924919D-06 5.153664388657D+03
    2.952000000000D+05-8.009374141693D-08-2.300645030094D+00 6.146728992462D-08
    9.698189312512D-01 2.573125000000D+02 9.098507607420D-01-8.127124241632D-09
   -6.857428496565D-11 1.000000000000D+00 2.268000000000D+03 0.000000000000D+00
    2.000000000000D+00 0.000000000000D+00-1.117587089539D-08 4.100000000000D+01
    2.915280000000D+05 4.000000000000D+00
11 23  6 28 10  0  0.0-2.535409294069D-04-1.557509676786D-11 0.000000000000D+00
    1.930000000000D+02-7.187500000000D+01 4.273035131922D-09 5.071446069399D-01
   -3.742054104805D-06 9.383610449731D-04 8.344650268555D-06 5.153770635605D+03
    2.952000000000D+05 4.097819328308D-08 1.800329892361D+00 2.607703208923D-08
    9.653388207052D-01 2.194062500000D+02-2.900846255433D+00-8.049263855577D-09
   -2.296524230881D-10 1.000000000000D+00 2.268000000000D+03 0.000000000000D+00
    2.000000000000D+00 0.000000000000D+00-8.847564458847D-09 7.050000000000D+02
    2.880180000000D+05 4.000000000000D+00
 6 23  6 28 10  0  0.0 5.823024548590D-04-2.614797267597D-12 0.000000000000D+00
    3.900000000000D+01-6.678125000000D+01 3.689082150871D-09-9.518762995258D-01
   -3.416091203690D-06 2.701342455111D-03 8.638948202133D-06 5.153696926117D+03
    2.952000000000D+05-5.029141902924D-08 1.759715923232D+00 1.676380634308D-08
    9.890865117890D-01 2.284375000000D+02-7.454853474970D-01-7.766751686233D-09
   -2.071514904056D-10 1.000000000000D+00 2.268000000000D+03 0.000000000000D+00
    2.000000000000D+00 0.000000000000D+00 3.725290298462D-09 3.900000000000D+01
    2.879400000000D+05
